[{"OBJECT_NAME":"JILIN-1 06","OBJECT_ID":"2017-074C","EPOCH":"2026-03-09T22:46:57.173376","MEAN_MOTION":15.32444387,"ECCENTRICITY":0.00061285,"INCLINATION":97.4715,"RA_OF_ASC_NODE":171.0354,"ARG_OF_PERICENTER":223.0031,"MEAN_ANOMALY":137.0732,"EPHEMERIS_TYPE":0,"CLASSIFICATION_TYPE":"U","NORAD_CAT_ID":43024,"ELEMENT_SET_NO":999,"REV_AT_EPOCH":45863,"BSTAR":0.00028431628,"MEAN_MOTION_DOT":8.833e-5,"MEAN_MOTION_DDOT":0},{"OBJECT_NAME":"STARLINK-1227","OBJECT_ID":"2020-012BE","EPOCH":"2026-03-09T04:25:44.093568","MEAN_MOTION":15.31040019,"ECCENTRICITY":0.00010621,"INCLINATION":53.1607,"RA_OF_ASC_NODE":1.2165,"ARG_OF_PERICENTER":82.0274,"MEAN_ANOMALY":278.0847,"EPHEMERIS_TYPE":0,"CLASSIFICATION_TYPE":"U","NORAD_CAT_ID":45230,"ELEMENT_SET_NO":999,"REV_AT_EPOCH":33545,"BSTAR":4.7655496e-5,"MEAN_MOTION_DOT":1.087e-5,"MEAN_MOTION_DDOT":0}]
